ELYSIUM STAR 2 & LFF    
1 43760U 18099C   24214.79751597  .00061900  00000+0  20889-2 0  9994
2 43760  97.5140 282.7879 0006607 122.9609 237.2268 15.30447402310205
